NORAD_CAT_ID,OBJECT_NAME,OBJECT_TYPE,EPOCH,MEAN_MOTION,ECCENTRICITY,INCLINATION,RA_OF_ASC_NODE,ARG_OF_PERICENTER,MEAN_ANOMALY,BSTAR,MEAN_MOTION_DOT,MEAN_MOTION_DDOT,TLE_LINE0,TLE_LINE1,TLE_LINE2,SEMIMAJOR_AXIS,PERIOD,APOGEE,PERIGEE,DECAYED
54178.0,STARLINK-5164,PAYLOAD,2023-01-07 06:00:00,15.07237337,0.0001799,53.2154,159.1662,40.2567,47.7431,-0.00018616,-3.119e-05,0.0,0 STARLINK-5164,1 54178U 22141X   23007.25001157 -.00003119  00000-0 -18616-3 0  9999,2 54178  53.2154 159.1662 0001799  40.2567  47.7431 15.07237337  1305,6922.783,95.539,545.894,543.403,0.0
54178.0,STARLINK-5164,PAYLOAD,2023-01-07 14:00:01,15.07251594,0.0001929,53.2156,157.6745,40.4885,57.1771,-0.0044119,-0.000669,0.0,0 STARLINK-5164,1 54178U 22141X   23007.58334491 -.00066900  00000-0 -44119-2 0  9998,2 54178  53.2156 157.6745 0001929  40.4885  57.1771 15.07251594 11182,6922.74,95.538,545.94,543.269,0.0
54178.0,STARLINK-5164,PAYLOAD,2023-01-08 00:00:00,15.07224006,0.0001984,53.2155,155.8089,36.5397,163.1877,-0.00066993,-0.00010472,0.0,0 STARLINK-5164,1 54178U 22141X   23008.00001157 -.00010472  00000-0 -66993-3 0  9994,2 54178  53.2155 155.8089 0001984  36.5397 163.1877 15.07224006  1303,6922.824000000001,95.54,546.063,543.316,0.0
54178.0,STARLINK-5164,PAYLOAD,2023-01-08 02:18:01,15.07221072,0.0002128,53.2155,155.3792,52.6237,307.4948,0.00010299,1.285e-05,0.0,0 STARLINK-5164,1 54178U 22141X   23008.09585587  .00001285  00000-0  10299-3 0  9995,2 54178  53.2155 155.3792 0002128  52.6237 307.4948 15.07221072 11260,6922.833000000001,95.54,546.1709999999998,543.225,0.0
54178.0,STARLINK-5164,PAYLOAD,2023-01-08 10:15:29,15.07202417,0.0002113,53.2159,153.8944,46.148,313.9686,0.00011972,1.539e-05,0.0,0 STARLINK-5164,1 54178U 22141X   23008.42742542  .00001539  00000-0  11972-3 0  9999,2 54178  53.2159 153.8944 0002113  46.1480 313.9686 15.07202417 11317,6922.89,95.541,546.2180000000002,543.293,0.0
54178.0,STARLINK-5164,PAYLOAD,2023-01-08 11:50:58,15.07202699,0.000212,53.2159,153.5974,45.9666,314.1499,0.00011834,1.518e-05,0.0,0 STARLINK-5164,1 54178U 22141X   23008.49373713  .00001518  00000-0  11834-3 0  9990,2 54178  53.2159 153.5974 0002120  45.9666 314.1499 15.07202699 11326,6922.889,95.541,546.222,543.2869999999998,0.0
54178.0,STARLINK-5164,PAYLOAD,2023-01-09 11:43:18,15.07215627,0.0002026,53.217,149.1426,38.365,321.7485,-0.00010972,-1.954e-05,0.0,0 STARLINK-5164,1 54178U 22141X   23009.48840999 -.00001954  00000-0 -10972-3 0  9993,2 54178  53.2170 149.1426 0002026  38.3650 321.7485 15.07215627 11476,6922.85,95.54,546.117,543.312,0.0
54178.0,STARLINK-5164,PAYLOAD,2023-01-10 13:11:08,15.07199631,0.000196,53.2171,144.3915,39.4854,320.628,3.465e-05,2.44e-06,0.0,0 STARLINK-5164,1 54178U 22141X   23010.54939870  .00000244  00000-0  34650-4 0  9998,2 54178  53.2171 144.3915 0001960  39.4854 320.6280 15.07199631 11636,6922.899,95.541,546.121,543.4069999999998,0.0
54178.0,STARLINK-5164,PAYLOAD,2023-01-11 14:38:56,15.07213559,0.0001956,53.2173,139.6404,37.8569,322.256,5.3789e-05,5.35e-06,0.0,0 STARLINK-5164,1 54178U 22141X   23011.61037534  .00000535  00000-0  53789-4 0  9990,2 54178  53.2173 139.6404 0001956  37.8569 322.2560 15.07213559 11790,6922.856,95.541,546.075,543.367,0.0
54178.0,STARLINK-5164,PAYLOAD,2023-01-12 14:31:17,15.07199716,0.0002099,53.2163,135.1863,43.6181,316.4976,-4.2354e-05,-9.28e-06,0.0,0 STARLINK-5164,1 54178U 22141X   23012.60506312 -.00000928  00000-0 -42354-4 0  9999,2 54178  53.2163 135.1863 0002099  43.6181 316.4976 15.07199716 11944,6922.899,95.541,546.217,543.311,0.0
54178.0,STARLINK-5164,PAYLOAD,2023-01-13 11:12:40,15.0718994,0.0002082,53.2165,131.3275,40.3104,319.8042,-0.00019785,-3.293e-05,0.0,0 STARLINK-5164,1 54178U 22141X   23013.46713510 -.00003293  00000-0 -19785-3 0  9993,2 54178  53.2165 131.3275 0002082  40.3104 319.8042 15.07189940 12076,6922.929,95.542,546.235,543.352,0.0
54178.0,STARLINK-5164,PAYLOAD,2023-01-13 14:23:38,15.07193586,0.000205,53.2172,130.7337,37.1509,322.9624,-0.0001078,-1.924e-05,0.0,0 STARLINK-5164,1 54178U 22141X   23013.59975471 -.00001924  00000-0 -10780-3 0  9998,2 54178  53.2172 130.7337 0002050  37.1509 322.9624 15.07193586 12098,6922.917,95.542,546.202,543.363,0.0
54178.0,STARLINK-5164,PAYLOAD,2023-01-14 07:54:01,15.072259099999998,0.000216,53.2171,127.4677,32.9177,327.1949,-0.00039681,-6.322e-05,0.0,0 STARLINK-5164,1 54178U 22141X   23014.32917919 -.00006322  00000-0 -39681-3 0  9991,2 54178  53.2171 127.4677 0002160  32.9177 327.1949 15.07225910 12200,6922.818,95.54,546.179,543.188,0.0
54178.0,STARLINK-5164,PAYLOAD,2023-01-14 23:48:55,15.07191502,0.0002229,53.2178,124.4975,34.7884,325.3252,0.00011231,1.426e-05,0.0,0 STARLINK-5164,1 54178U 22141X   23014.99230701  .00001426  00000-0  11231-3 0  9990,2 54178  53.2178 124.4975 0002229  34.7884 325.3252 15.07191502 12303,6922.924,95.542,546.332,543.246,0.0
54178.0,STARLINK-5164,PAYLOAD,2023-01-15 07:46:22,15.07189757,0.000243,53.2172,123.0138,47.7552,312.3645,-5.760700000000001e-06,-3.71e-06,0.0,0 STARLINK-5164,1 54178U 22141X   23015.32387707 -.00000371  00000-0 -57607-5 0  9996,2 54178  53.2172 123.0138 0002430  47.7552 312.3645 15.07189757 12359,6922.929,95.542,546.476,543.112,0.0
54178.0,STARLINK-5164,PAYLOAD,2023-01-15 14:08:19,15.07198911,0.0001946,53.2171,121.8268,43.6266,316.488,7.4279e-05,8.47e-06,0.0,0 STARLINK-5164,1 54178U 22141X   23015.58911737  .00000847  00000-0  74279-4 0  9999,2 54178  53.2171 121.8268 0001946  43.6266 316.4880 15.07198911 12398,6922.901,95.541,546.113,543.419,0.0
54178.0,STARLINK-5164,PAYLOAD,2023-01-15 15:43:48,15.07203656,0.0001901,53.2174,121.5281,45.9712,314.1436,8.9873e-05,1.085e-05,0.0,0 STARLINK-5164,1 54178U 22141X   23015.65542597  .00001085  00000-0  89873-4 0  9992,2 54178  53.2174 121.5281 0001901  45.9712 314.1436 15.07203656 12402,6922.887,95.541,546.068,543.436,0.0
54178.0,STARLINK-5164,PAYLOAD,2023-01-15 23:41:16,15.07197507,0.0002177999999999,53.2177,120.0439,49.9092,310.209,4.351e-05,3.79e-06,0.0,0 STARLINK-5164,1 54178U 22141X   23015.98699275  .00000379  00000-0  43510-4 0  9997,2 54178  53.2177 120.0439 0002178  49.9092 310.2090 15.07197507 12451,6922.905,95.542,546.278,543.263,0.0
54178.0,STARLINK-5164,PAYLOAD,2023-01-16 10:49:41,15.07209185,0.0001804,53.2178,117.964,48.6128,311.5018,1.6346e-06,-2.59e-06,0.0,0 STARLINK-5164,1 54178U 22141X   23016.45116963 -.00000259  00000-0  16346-5 0  9994,2 54178  53.2178 117.9640 0001804  48.6128 311.5018 15.07209185 12520,6922.87,95.541,545.984,543.486,0.0
54178.0,STARLINK-5164,PAYLOAD,2023-01-16 14:00:38,15.07222824,0.0001883,53.2172,117.3708,53.0481,307.0683,0.00012467,1.615e-05,0.0,0 STARLINK-5164,1 54178U 22141X   23016.58378067  .00001615  00000-0  12467-3 0  9997,2 54178  53.2172 117.3708 0001883  53.0481 307.0683 15.07222824 12547,6922.828,95.54,545.996,543.389,0.0
54178.0,STARLINK-5164,PAYLOAD,2023-01-16 23:33:36,15.07194404,0.0002045999999999,53.2182,115.5904,60.5933,299.5262,3.9175e-05,3.13e-06,0.0,0 STARLINK-5164,1 54178U 22141X   23016.98167239  .00000313  00000-0  39175-4 0  9998,2 54178  53.2182 115.5904 0002046  60.5933 299.5262 15.07194404 12600,6922.915,95.542,546.196,543.363,0.0
54178.0,STARLINK-5164,PAYLOAD,2023-01-17 05:55:35,15.07173094,0.0002008999999999,53.2179,114.4035,68.5915,291.5291,-0.00017895,-3.004e-05,0.0,0 STARLINK-5164,1 54178U 22141X   23017.24694359 -.00003004  00000-0 -17895-3 0  9992,2 54178  53.2179 114.4035 0002009  68.5915 291.5291 15.07173094 12646,6922.98,95.543,546.236,543.4540000000001,0.0
54178.0,STARLINK-5164,PAYLOAD,2023-01-17 13:53:02,15.07183095,0.0001841,53.2157,112.9196,67.1595,292.959,-0.00015676,-2.667e-05,0.0,0 STARLINK-5164,1 54178U 22141X   23017.57850072 -.00002667  00000-0 -15676-3 0  9993,2 54178  53.2157 112.9196 0001841  67.1595 292.9590 15.07183095 12699,6922.95,95.542,546.089,543.54,0.0
54178.0,STARLINK-5164,PAYLOAD,2023-01-18 12:09:50,15.07223799,0.0001696,53.2177,108.7617,71.4614,288.6562,0.0001448,1.922e-05,0.0,0 STARLINK-5164,1 54178U 22141X   23018.50683299  .00001922  00000-0  14480-3 0  9995,2 54178  53.2177 108.7617 0001696  71.4614 288.6562 15.07223799 12833,6922.825,95.54,545.864,543.516,0.0
54178.0,STARLINK-5164,PAYLOAD,2023-01-18 13:45:19,15.07235876,0.0001669,53.2179,108.4631,70.8896,289.2276,0.00011593,1.483e-05,0.0,0 STARLINK-5164,1 54178U 22141X   23018.57313762  .00001483  00000-0  11593-3 0  9991,2 54178  53.2179 108.4631 0001669  70.8896 289.2276 15.07235876 12842,6922.7880000000005,95.539,545.808,543.497,0.0
54178.0,STARLINK-5164,PAYLOAD,2023-01-19 10:26:42,15.07193811,0.0001355,53.2172,104.6076,70.536,289.5778,0.00020714,2.87e-05,0.0,0 STARLINK-5164,1 54178U 22141X   23019.43521306  .00002870  00000-0  20714-3 0  9998,2 54178  53.2172 104.6076 0001355  70.5360 289.5778 15.07193811 12977,6922.917,95.542,545.72,543.844,0.0
54178.0,STARLINK-5164,PAYLOAD,2023-01-19 13:37:40,15.07206781,0.0001306,53.2188,104.0057,118.417,241.6953,8.915299999999999e-05,1.074e-05,0.0,0 STARLINK-5164,1 54178U 22141X   23019.56783082  .00001074  00000-0  89153-4 0  9991,2 54178  53.2188 104.0057 0001306 118.4170 241.6953 15.07206781 12991,6922.877,95.541,545.646,543.8380000000001,0.0
54178.0,STARLINK-5164,PAYLOAD,2023-01-20 11:54:31,15.07220143,0.0001725,53.2179,99.8515,105.1624,254.9558,-0.00010443,-1.873e-05,0.0,0 STARLINK-5164,1 54178U 22141X   23020.49619576 -.00001873  00000-0 -10443-3 0  9995,2 54178  53.2179  99.8515 0001725 105.1624 254.9558 15.07220143 13136,6922.835999999999,95.54,545.895,543.507,0.0
54178.0,STARLINK-5164,PAYLOAD,2023-01-20 15:05:29,15.07223007,0.0001624,53.2179,99.2575,97.7666,262.351,-0.00010589,-1.896e-05,0.0,0 STARLINK-5164,1 54178U 22141X   23020.62881690 -.00001896  00000-0 -10589-3 0  9994,2 54178  53.2179  99.2575 0001624  97.7666 262.3510 15.07223007 13151,6922.826999999999,95.54,545.817,543.568,0.0
